[{"OBJECT_NAME":"OPS 6582 (TRANSIT 5B-5)","OBJECT_ID":"1964-083D","EPOCH":"2026-04-26T18:52:39.687744","MEAN_MOTION":13.57007793,"ECCENTRICITY":0.00434445,"INCLINATION":90.0797,"RA_OF_ASC_NODE":202.6204,"ARG_OF_PERICENTER":69.5092,"MEAN_ANOMALY":54.964,"EPHEMERIS_TYPE":0,"CLASSIFICATION_TYPE":"U","NORAD_CAT_ID":965,"ELEMENT_SET_NO":999,"REV_AT_EPOCH":3664,"BSTAR":5.5233799e-5,"MEAN_MOTION_DOT":4.9e-7,"MEAN_MOTION_DDOT":0},{"OBJECT_NAME":"LES-1","OBJECT_ID":"1965-008C","EPOCH":"2026-04-26T18:55:52.835808","MEAN_MOTION":9.88355191,"ECCENTRICITY":0.00153397,"INCLINATION":32.1385,"RA_OF_ASC_NODE":166.4715,"ARG_OF_PERICENTER":84.9845,"MEAN_ANOMALY":275.2403,"EPHEMERIS_TYPE":0,"CLASSIFICATION_TYPE":"U","NORAD_CAT_ID":1002,"ELEMENT_SET_NO":999,"REV_AT_EPOCH":21110,"BSTAR":-0.00021656816,"MEAN_MOTION_DOT":7.0e-8,"MEAN_MOTION_DDOT":0},{"OBJECT_NAME":"SOLRAD 7B","OBJECT_ID":"1965-016D","EPOCH":"2026-04-26T20:13:10.859520","MEAN_MOTION":13.94969444,"ECCENTRICITY":0.00216985,"INCLINATION":70.0805,"RA_OF_ASC_NODE":345.425,"ARG_OF_PERICENTER":195.3237,"MEAN_ANOMALY":164.7214,"EPHEMERIS_TYPE":0,"CLASSIFICATION_TYPE":"U","NORAD_CAT_ID":1291,"ELEMENT_SET_NO":999,"REV_AT_EPOCH":10954,"BSTAR":6.4830031e-5,"MEAN_MOTION_DOT":3.5e-7,"MEAN_MOTION_DDOT":0},{"OBJECT_NAME":"SECOR 4 (EGRS 4)","OBJECT_ID":"1965-027B","EPOCH":"2026-04-26T16:53:07.946880","MEAN_MOTION":12.92666989,"ECCENTRICITY":0.00305033,"INCLINATION":90.2551,"RA_OF_ASC_NODE":14.4037,"ARG_OF_PERICENTER":337.9585,"MEAN_ANOMALY":76.1253,"EPHEMERIS_TYPE":0,"CLASSIFICATION_TYPE":"U","NORAD_CAT_ID":1315,"ELEMENT_SET_NO":999,"REV_AT_EPOCH":88027,"BSTAR":0.00015675841,"MEAN_MOTION_DOT":5.0e-7,"MEAN_MOTION_DDOT":0},{"OBJECT_NAME":"TIROS 10","OBJECT_ID":"1965-051A","EPOCH":"2026-04-26T21:22:03.597024","MEAN_MOTION":14.41609278,"ECCENTRICITY":0.00543636,"INCLINATION":98.4963,"RA_OF_ASC_NODE":236.4648,"ARG_OF_PERICENTER":232.2481,"MEAN_ANOMALY":127.3776,"EPHEMERIS_TYPE":0,"CLASSIFICATION_TYPE":"U","NORAD_CAT_ID":1430,"ELEMENT_SET_NO":999,"REV_AT_EPOCH":18852,"BSTAR":6.5385323e-5,"MEAN_MOTION_DOT":1.71e-6,"MEAN_MOTION_DDOT":0},{"OBJECT_NAME":"ALOUETTE 2","OBJECT_ID":"1965-098A","EPOCH":"2026-04-26T22:25:21.071424","MEAN_MOTION":12.28312913,"ECCENTRICITY":0.13305644,"INCLINATION":79.7989,"RA_OF_ASC_NODE":320.2837,"ARG_OF_PERICENTER":336.4922,"MEAN_ANOMALY":18.0323,"EPHEMERIS_TYPE":0,"CLASSIFICATION_TYPE":"U","NORAD_CAT_ID":1804,"ELEMENT_SET_NO":999,"REV_AT_EPOCH":67298,"BSTAR":0.00010513483,"MEAN_MOTION_DOT":3.21e-6,"MEAN_MOTION_DDOT":0},{"OBJECT_NAME":"OV3-3","OBJECT_ID":"1966-070A","EPOCH":"2026-04-26T20:55:12.440064","MEAN_MOTION":13.44351142,"ECCENTRICITY":0.10150031,"INCLINATION":81.3313,"RA_OF_ASC_NODE":16.2571,"ARG_OF_PERICENTER":290.7978,"MEAN_ANOMALY":58.7395,"EPHEMERIS_TYPE":0,"CLASSIFICATION_TYPE":"U","NORAD_CAT_ID":2389,"ELEMENT_SET_NO":999,"REV_AT_EPOCH":59207,"BSTAR":0.00039759474,"MEAN_MOTION_DOT":8.73e-5,"MEAN_MOTION_DDOT":0},{"OBJECT_NAME":"SECOR 7 (EGRS 7)","OBJECT_ID":"1966-077B","EPOCH":"2026-04-26T21:32:31.583328","MEAN_MOTION":8.59615519,"ECCENTRICITY":0.00118513,"INCLINATION":90.3284,"RA_OF_ASC_NODE":276.8425,"ARG_OF_PERICENTER":107.8184,"MEAN_ANOMALY":252.3961,"EPHEMERIS_TYPE":0,"CLASSIFICATION_TYPE":"U","NORAD_CAT_ID":2411,"ELEMENT_SET_NO":999,"REV_AT_EPOCH":87297,"BSTAR":0.0097227935,"MEAN_MOTION_DOT":2.1e-7,"MEAN_MOTION_DDOT":0},{"OBJECT_NAME":"ERS 15","OBJECT_ID":"1966-077C","EPOCH":"2026-04-26T09:35:07.573344","MEAN_MOTION":8.59079422,"ECCENTRICITY":0.00073712,"INCLINATION":90.3282,"RA_OF_ASC_NODE":276.6294,"ARG_OF_PERICENTER":116.466,"MEAN_ANOMALY":243.6948,"EPHEMERIS_TYPE":0,"CLASSIFICATION_TYPE":"U","NORAD_CAT_ID":2412,"ELEMENT_SET_NO":999,"REV_AT_EPOCH":38601,"BSTAR":0,"MEAN_MOTION_DOT":2.0e-8,"MEAN_MOTION_DDOT":0},{"OBJECT_NAME":"ISIS 1","OBJECT_ID":"1969-009A","EPOCH":"2026-04-26T07:56:52.219680","MEAN_MOTION":11.30424395,"ECCENTRICITY":0.17069925,"INCLINATION":88.4445,"RA_OF_ASC_NODE":150.0985,"ARG_OF_PERICENTER":353.0303,"MEAN_ANOMALY":4.9478,"EPHEMERIS_TYPE":0,"CLASSIFICATION_TYPE":"U","NORAD_CAT_ID":3669,"ELEMENT_SET_NO":999,"REV_AT_EPOCH":35391,"BSTAR":7.4237163e-5,"MEAN_MOTION_DOT":1.1e-6,"MEAN_MOTION_DDOT":0},{"OBJECT_NAME":"SECOR 13 (EGRS 13)","OBJECT_ID":"1969-037B","EPOCH":"2026-04-26T14:44:13.722144","MEAN_MOTION":13.42974971,"ECCENTRICITY":0.00398,"INCLINATION":99.6565,"RA_OF_ASC_NODE":350.3224,"ARG_OF_PERICENTER":19.1412,"MEAN_ANOMALY":35.3173,"EPHEMERIS_TYPE":0,"CLASSIFICATION_TYPE":"U","NORAD_CAT_ID":3891,"ELEMENT_SET_NO":999,"REV_AT_EPOCH":79483,"BSTAR":3.4886e-5,"MEAN_MOTION_DOT":-2.2e-7,"MEAN_MOTION_DDOT":0},{"OBJECT_NAME":"ATS 5","OBJECT_ID":"1969-069A","EPOCH":"2026-04-26T20:03:35.123616","MEAN_MOTION":0.99490035,"ECCENTRICITY":0.00055921,"INCLINATION":0.2329,"RA_OF_ASC_NODE":184.3227,"ARG_OF_PERICENTER":98.2831,"MEAN_ANOMALY":158.7591,"EPHEMERIS_TYPE":0,"CLASSIFICATION_TYPE":"U","NORAD_CAT_ID":4068,"ELEMENT_SET_NO":999,"REV_AT_EPOCH":4581,"BSTAR":0,"MEAN_MOTION_DOT":-1.69e-6,"MEAN_MOTION_DDOT":0},{"OBJECT_NAME":"OPS 7613 (P/L 4)","OBJECT_ID":"1969-082E","EPOCH":"2026-04-26T17:34:09.143328","MEAN_MOTION":13.95987659,"ECCENTRICITY":0.00215549,"INCLINATION":70.0155,"RA_OF_ASC_NODE":213.8091,"ARG_OF_PERICENTER":204.0712,"MEAN_ANOMALY":270.2266,"EPHEMERIS_TYPE":0,"CLASSIFICATION_TYPE":"U","NORAD_CAT_ID":4237,"ELEMENT_SET_NO":999,"REV_AT_EPOCH":87912,"BSTAR":5.306513e-5,"MEAN_MOTION_DOT":2.0e-7,"MEAN_MOTION_DDOT":0},{"OBJECT_NAME":"OPS 7613 (P/L 1)","OBJECT_ID":"1969-082B","EPOCH":"2026-04-26T20:04:08.275296","MEAN_MOTION":13.9918249,"ECCENTRICITY":0.00176456,"INCLINATION":70.0089,"RA_OF_ASC_NODE":75.3267,"ARG_OF_PERICENTER":138.855,"MEAN_ANOMALY":221.3891,"EPHEMERIS_TYPE":0,"CLASSIFICATION_TYPE":"U","NORAD_CAT_ID":4256,"ELEMENT_SET_NO":999,"REV_AT_EPOCH":88328,"BSTAR":9.838481e-5,"MEAN_MOTION_DOT":9.0e-7,"MEAN_MOTION_DDOT":0},{"OBJECT_NAME":"SHINSEI (MS-F2)","OBJECT_ID":"1971-080A","EPOCH":"2026-04-26T20:11:20.822208","MEAN_MOTION":12.74248797,"ECCENTRICITY":0.06392358,"INCLINATION":32.0549,"RA_OF_ASC_NODE":325.305,"ARG_OF_PERICENTER":59.5528,"MEAN_ANOMALY":306.6645,"EPHEMERIS_TYPE":0,"CLASSIFICATION_TYPE":"U","NORAD_CAT_ID":5485,"ELEMENT_SET_NO":999,"REV_AT_EPOCH":54270,"BSTAR":6.4435662e-5,"MEAN_MOTION_DOT":4.4e-7,"MEAN_MOTION_DDOT":0},{"OBJECT_NAME":"PROSPERO (BLACK ARROW)","OBJECT_ID":"1971-093A","EPOCH":"2026-04-26T18:09:52.322976","MEAN_MOTION":14.01527852,"ECCENTRICITY":0.05020275,"INCLINATION":82.0389,"RA_OF_ASC_NODE":335.984,"ARG_OF_PERICENTER":14.75,"MEAN_ANOMALY":346.7714,"EPHEMERIS_TYPE":0,"CLASSIFICATION_TYPE":"U","NORAD_CAT_ID":5580,"ELEMENT_SET_NO":999,"REV_AT_EPOCH":74132,"BSTAR":0.00022310733,"MEAN_MOTION_DOT":1.06e-5,"MEAN_MOTION_DDOT":0},{"OBJECT_NAME":"OPS 7898 (P/L 2)","OBJECT_ID":"1971-110C","EPOCH":"2026-04-26T07:02:31.956288","MEAN_MOTION":13.74754354,"ECCENTRICITY":0.00102613,"INCLINATION":69.987,"RA_OF_ASC_NODE":110.0137,"ARG_OF_PERICENTER":243.0524,"MEAN_ANOMALY":116.9522,"EPHEMERIS_TYPE":0,"CLASSIFICATION_TYPE":"U","NORAD_CAT_ID":5680,"ELEMENT_SET_NO":999,"REV_AT_EPOCH":34108,"BSTAR":5.6789727e-5,"MEAN_MOTION_DOT":4.0e-8,"MEAN_MOTION_DDOT":0}]
