OPS 6582 (TRANSIT 5B-5) 
1 00965U 64083D   26116.78657046  .00000049  00000+0  55234-4 0  9995
2 00965  90.0797 202.6204 0043444  69.5092  54.9640 13.57007793 36649
LES-1                   
1 01002U 65008C   26116.78880597  .00000007  00000+0 -21657-3 0  9991
2 01002  32.1385 166.4715 0015339  84.9845 275.2403  9.88355191211103
SOLRAD 7B               
1 01291U 65016D   26116.84248680  .00000035  00000+0  64830-4 0  9999
2 01291  70.0805 345.4250 0021698 195.3237 164.7214 13.94969444109541
SECOR 4 (EGRS 4)        
1 01315U 65027B   26116.70356420  .00000050  00000+0  15676-3 0  9995
2 01315  90.2551  14.4037 0030503 337.9585  76.1253 12.92666989880271
TIROS 10                
1 01430U 65051A   26116.89031941  .00000171  00000+0  65385-4 0  9995
2 01430  98.4963 236.4648 0054363 232.2481 127.3776 14.41609278188524
ALOUETTE 2              
1 01804U 65098A   26116.93427166  .00000321  00000+0  10513-3 0  9993
2 01804  79.7989 320.2837 1330564 336.4922  18.0323 12.28312913672981
OV3-3                   
1 02389U 66070A   26116.87167176  .00008730  00000+0  39759-3 0  9993
2 02389  81.3313  16.2571 1015003 290.7978  58.7395 13.44351142592075
SECOR 7 (EGRS 7)        
1 02411U 66077B   26116.89758777  .00000021  00000+0  97228-2 0  9990
2 02411  90.3284 276.8425 0011851 107.8184 252.3961  8.59615519872975
ERS 15                  
1 02412U 66077C   26116.39939321  .00000002  00000+0  00000+0 0  9990
2 02412  90.3282 276.6294 0007371 116.4660 243.6948  8.59079422386013
ISIS 1                  
1 03669U 69009A   26116.33115995  .00000110  00000+0  74237-4 0  9998
2 03669  88.4445 150.0985 1706992 353.0303   4.9478 11.30424395353913
SECOR 13 (EGRS 13)      
1 03891U 69037B   26116.61404771 -.00000022  00000+0  34886-4 0  9999
2 03891  99.6565 350.3224 0039800  19.1412  35.3173 13.42974971794830
ATS 5                   
1 04068U 69069A   26116.83582319 -.00000169  00000+0  00000+0 0  9998
2 04068   0.2329 184.3227 0005592  98.2831 158.7591  0.99490035 45818
OPS 7613 (P/L 4)        
1 04237U 69082E   26116.73205027  .00000020  00000+0  53065-4 0  9997
2 04237  70.0155 213.8091 0021554 204.0712 270.2266 13.95987659879127
OPS 7613 (P/L 1)        
1 04256U 69082B   26116.83620689  .00000090  00000+0  98385-4 0  9995
2 04256  70.0089  75.3267 0017645 138.8550 221.3891 13.99182490883287
SHINSEI (MS-F2)         
1 05485U 71080A   26116.84121322  .00000044  00000+0  64436-4 0  9991
2 05485  32.0549 325.3050 0639235  59.5528 306.6645 12.74248797542706
PROSPERO (BLACK ARROW)  
1 05580U 71093A   26116.75685559  .00001060  00000+0  22311-3 0  9992
2 05580  82.0389 335.9840 0502027  14.7500 346.7714 14.01527852741329
OPS 7898 (P/L 2)        
1 05680U 71110C   26116.29342542  .00000004  00000+0  56790-4 0  9990
2 05680  69.9870 110.0137 0010261 243.0524 116.9522 13.74754354341088
